DUCHIFAT-1              
1 40021U 14033M   26160.66319580  .00089241  00000+0  97274-3 0  9996
2 40021  98.0468 218.7756 0004250 128.7819 231.3818 15.63096310654574
NANOSATC-BR1            
1 40024U 14033Q   26160.03741032  .00014864  00000+0  49566-3 0  9991
2 40024  98.0734 191.7047 0003543 185.9906 174.1292 15.31195370652739
QB50P1                  
1 40025U 14033R   26160.76831812  .00008189  00000+0  40439-3 0  9991
2 40025  98.0973 171.3946 0007226 244.9283 115.1199 15.18148380651906
DTUSAT-2                
1 40030U 14033W   26160.70830572  .00006020  00000+0  32694-3 0  9999
2 40030  98.0864 157.9610 0006122 256.5032 103.5516 15.14922976651556
QB50P2                  
1 40032U 14033Y   26160.70327472  .00005888  00000+0  31854-3 0  9999
2 40032  98.0753 157.1181 0007229 187.2698 172.8429 15.15063299651532
PERSEUS-M1              
1 40039U 14033AF  26160.74373003  .00001507  00000+0  14104-3 0  9994
2 40039  97.9644 104.7538 0010738 329.6595  30.4002 14.95610933649529
POLYITAN-1              
1 40042U 14033AJ  26160.61176760  .00017344  00000+0  54587-3 0  9990
2 40042  98.0951 186.1578 0008078 163.3411 196.8096 15.32990302652435
TIGRISAT                
1 40043U 14033AK  26160.70464997  .00002155  00000+0  25246-3 0  9997
2 40043  97.7823 310.8886 0050703  99.0925 261.6032 14.85133283644510
CANX-4                  
1 40055U 14034C   26160.38355200  .00000839  00000+0  11496-3 0  9990
2 40055  98.3132  35.4098 0013670  40.8785 319.3449 14.81250099643375
CANX-5                  
1 40056U 14034D   26160.65227713  .00000885  00000+0  12067-3 0  9994
2 40056  98.3134  35.7317 0013665  40.1713 320.0506 14.81268050634226
GONETS-M 10             
1 40063U 14036C   26160.90653509  .00000086  00000+0  54475-3 0  9990
2 40063  82.5111 312.1978 0022378 155.9268 204.2863 12.42945696541342
METEOR-M 2              
1 40069U 14037A   26160.89542443  .00000247  00000+0  13211-3 0  9991
2 40069  98.5113 136.8919 0006963  62.2775 297.9109 14.21460250618285
DX1                     
1 40071U 14037C   26160.90713441  .00001473  00000+0  15937-3 0  9993
2 40071  98.3861 122.1669 0005958 304.0809  55.9841 14.89962608645029
UKUBE-1                 
1 40074U 14037F   26160.76359553  .00008577  00000+0  48408-3 0  9991
2 40074  98.4238 163.2558 0002164 144.4016 215.7357 15.13433815647432
GAOFEN-2                
1 40118U 14049A   26160.94659264  .00000813  00000+0  11208-3 0  9998
2 40118  98.0110 225.1607 0005879 255.8100 104.2459 14.80892055638169
BRITE-PL2 (HEWELIUSZ)   
1 40119U 14049B   26160.54008978  .00001894  00000+0  18026-3 0  9990
2 40119  97.9090 272.4818 0015166 131.1884 229.0646 14.94569959640301
CBERS 4                 
1 40336U 14079A   26160.92760958 -.00000056  00000+0 -47945-5 0  9994
2 40336  98.3534 217.9868 0001996  71.2166 288.9237 14.35506657602918
SMAP                    
1 40376U 15003A   26160.83198510  .00000395  00000+0  85493-4 0  9998
2 40376  98.1275 168.0307 0001275  93.5882 266.5466 14.63360124606545
GONETS-M 11             
1 40552U 15020A   26160.92457980  .00000029  00000+0  13900-3 0  9999
2 40552  82.4875  35.5172 0016926  21.0575 339.1198 12.42876888507830
GONETS-M 12             
1 40553U 15020B   26160.97864742 -.00000011  00000+0 -14934-3 0  9994
2 40553  82.4909  36.6054 0015665   6.4331 353.6946 12.42890809507837
GONETS-M 13             
1 40554U 15020C   26160.95200757  .00000038  00000+0  20474-3 0  9996
2 40554  82.4871  35.2392 0013999 352.0980   7.9877 12.42870051507800
DMC3-FM1                
1 40715U 15032A   26160.93175390  .00000952  00000+0  11560-3 0  9991
2 40715  97.6475  26.3913 0007227  78.4340 281.7687 14.85732902588837
DMC3-FM2                
1 40716U 15032B   26160.88648569  .00000062  00000+0  13046-4 0  9993
2 40716  97.6528  27.9162 0007678  82.5016 277.7072 14.85734948588820
DMC3-FM3                
1 40717U 15032C   26160.90976225  .00000299  00000+0  40419-4 0  9996
2 40717  97.6579  29.6868 0006831  82.7614 277.4378 14.85723964588838
CARBONITE 1 (CBNT-1)    
1 40718U 15032D   26160.89833688  .00001157  00000+0  14649-3 0  9999
2 40718  97.6510 339.2708 0013726 323.9578  36.0710 14.83564001588266
LILACSAT-2              
1 40908U 15049K   26160.91891475  .00017230  00000+0  29594-3 0  9993
2 40908  97.4660 197.4849 0005246 280.2645  79.8015 15.51205284594620
